0 DELTA 1 DEB
1 14463U 78026GD  13281.65823074  .00000848  00000-0  48013-3 0  5503
2 14463 099.0129 066.3539 0135455 112.5971 016.8690 14.08219748644032
0 DELTA 1 DEB
1 14463U 78026GD  13284.13087677  .00000674  00000-0  38624-3 0  5515
2 14463 099.0129 068.8241 0135419 105.6949 312.1676 14.08229086644387
0 DELTA 1 DEB
1 14463U 78026GD  13286.33383087  .00000519  00000-0  30267-3 0  5527
2 14463 099.0133 071.0249 0135388 099.5583 320.2883 14.08232546644695
0 DELTA 1 DEB
1 14463U 78026GD  13288.39353566  .00001003  00000-0  56337-3 0  5530
2 14463 099.0137 073.0826 0135340 093.8213 322.2229 14.08235742644986
0 DELTA 1 DEB
1 14463U 78026GD  13290.68004590  .00001097  00000-0  61422-3 0  5540
2 14463 099.0140 075.3671 0135213 087.4487 034.0144 14.08239056645307
0 DELTA 1 DEB
1 14463U 78026GD  13293.08256454  .00001268  00000-0  70649-3 0  5557
2 14463 099.0141 077.7675 0135086 080.7380 333.9714 14.08243239645643
0 DELTA 1 DEB
1 14463U 78026GD  13295.35836938  .00001138  00000-0  63650-3 0  5561
2 14463 099.0140 080.0415 0135021 074.3789 351.5652 14.08251165645961
